[{"OBJECT_NAME":"STARLINK-5702","OBJECT_ID":"2023-020BF","EPOCH":"2026-03-09T03:57:53.551296","MEAN_MOTION":15.02529652,"ECCENTRICITY":0.00015279,"INCLINATION":43.0062,"RA_OF_ASC_NODE":354.2381,"ARG_OF_PERICENTER":277.605,"MEAN_ANOMALY":82.4619,"EPHEMERIS_TYPE":0,"CLASSIFICATION_TYPE":"U","NORAD_CAT_ID":55622,"ELEMENT_SET_NO":999,"REV_AT_EPOCH":16899,"BSTAR":-3.7877432e-5,"MEAN_MOTION_DOT":-7.15e-6,"MEAN_MOTION_DDOT":0},{"OBJECT_NAME":"OBJECT H","OBJECT_ID":"2025-292H","EPOCH":"2026-03-09T22:24:53.558208","MEAN_MOTION":15.06373042,"ECCENTRICITY":0.00142604,"INCLINATION":97.6442,"RA_OF_ASC_NODE":145.7846,"ARG_OF_PERICENTER":348.9217,"MEAN_ANOMALY":11.1694,"EPHEMERIS_TYPE":0,"CLASSIFICATION_TYPE":"U","NORAD_CAT_ID":67000,"ELEMENT_SET_NO":999,"REV_AT_EPOCH":1338,"BSTAR":0.0005462937,"MEAN_MOTION_DOT":8.001e-5,"MEAN_MOTION_DDOT":0}]
